GUOWANG TEST OBJECT A   
1 69320U 26120A   26152.22676039  .00010528  00000+0  28022-3 0  9994
2 69320  54.9978  99.6159 0009159 274.0654  85.9327 15.38786350   230
GUOWANG TEST OBJECT B   
1 69321U 26120B   26152.22646240  .00027608  00000+0  70944-3 0  9993
2 69321  54.9976  99.6150 0009146 282.2486  77.7518 15.39106645   235
GUOWANG TEST OBJECT C   
1 69322U 26120C   26152.22618734  .00020492  00000+0  52449-3 0  9995
2 69322  54.9979  99.6107 0009360 290.4255  69.5768 15.39404179   233
GUOWANG TEST OBJECT D   
1 69323U 26120D   26152.22585963  .00034091  00000+0  85462-3 0  9994
2 69323  54.9977  99.6090 0009732 298.7088  61.2962 15.39750006   239
QIANFAN-163             
1 69325U 26121A   26154.91084975  .00000017  00000+0  71017-5 0  9996
2 69325  89.0161 301.8582 0018821 226.9620 132.9961 13.60350490   356
QIANFAN-164             
1 69326U 26121B   26154.91056587  .00000126  00000+0  15124-3 0  9991
2 69326  89.0158 301.8581 0018187 228.2494 131.7108 13.60503557   355
SZ-22 MODULE            
1 69328U 25272C   26154.92342954  .00021557  00000+0  26540-3 0  9991
2 69328  41.4808  42.7111 0008539 343.5372  16.5188 15.59675172  1258
