OBJECT_NAME,OBJECT_ID,EPOCH,MEAN_MOTION,ECCENTRICITY,INCLINATION,RA_OF_ASC_NODE,ARG_OF_PERICENTER,MEAN_ANOMALY,EPHEMERIS_TYPE,CLASSIFICATION_TYPE,NORAD_CAT_ID,ELEMENT_SET_NO,REV_AT_EPOCH,BSTAR,MEAN_MOTION_DOT,MEAN_MOTION_DDOT
GUOWANG TEST OBJECT A,2026-120A,2026-06-01T05:26:32.097696,15.38786350,.00091599,54.9978,99.6159,274.0654,85.9327,0,U,69320,999,23,.28022468E-3,.10528E-3,0
GUOWANG TEST OBJECT B,2026-120B,2026-06-01T05:26:06.351360,15.39106645,.00091466,54.9976,99.6150,282.2486,77.7518,0,U,69321,999,23,.70944119E-3,.27608E-3,0
GUOWANG TEST OBJECT C,2026-120C,2026-06-01T05:25:42.586176,15.39404179,.00093607,54.9979,99.6107,290.4255,69.5768,0,U,69322,999,23,.5244937E-3,.20492E-3,0
GUOWANG TEST OBJECT D,2026-120D,2026-06-01T05:25:14.272032,15.39750006,.0009732,54.9977,99.6090,298.7088,61.2962,0,U,69323,999,23,.8546188E-3,.34091E-3,0
QIANFAN-163,2026-121A,2026-06-03T21:51:37.418400,13.60350490,.00188218,89.0161,301.8582,226.9620,132.9961,0,U,69325,999,35,.7101693E-5,.17E-6,0
QIANFAN-164,2026-121B,2026-06-03T21:51:12.891168,13.60503557,.00181875,89.0158,301.8581,228.2494,131.7108,0,U,69326,999,35,.15124446E-3,.126E-5,0
SZ-22 MODULE,2025-272C,2026-06-03T22:09:44.312256,15.59675172,.00085391,41.4808,42.7111,343.5372,16.5188,0,U,69328,999,125,.26539805E-3,.21557E-3,0
